{"type": "FeatureCollection", "features": [ {"type": "Feature", "properties": {"norad_id": 29892, "name": "FENGYUN 1C DEB", "group": "fengyun-1c-debris", "lat": -72.5714179534342, "lon": -61.68417805186505, "alt_km": 652.9034832574071, "timestamp": "2025-12-26T22:28:06.056263+00:00", "meta": {"OBJECT_NAME": "FENGYUN 1C DEB", "OBJECT_ID": "1999-025GN", "EPOCH": "2025-12-26T09:47:54.167712", "MEAN_MOTION": 14.32461571, "ECCENTRICITY": 0.01924944, "INCLINATION": 99.1801, "RA_OF_ASC_NODE": 148.7626, "ARG_OF_PERICENTER": 257.936, "MEAN_ANOMALY": 156.3371, "EPHEMERIS_TYPE": 0, "CLASSIFICATION_TYPE": "U", "NORAD_CAT_ID": 29892, "ELEMENT_SET_NO": 999, "REV_AT_EPOCH": 96845, "BSTAR": 0.0036109522, "MEAN_MOTION_DOT": 0.00011971, "MEAN_MOTION_DDOT": 0}, "tle": {"line1": "1 29892U 99025GN  25360.40826583  .00011971  00000+0  36110-2 0  9998", "line2": "2 29892  99.1801 148.7626 0192494 257.9360 156.3371 14.32461571968457"}}, "geometry": {"type": "Point", "coordinates": [-61.68417805186505, -72.5714179534342]}}, {"type": "Feature", "properties": {"norad_id": 29893, "name": "FENGYUN 1C DEB", "group": "fengyun-1c-debris", "lat": -21.76137260071751, "lon": -87.80481270881747, "alt_km": 961.5042827017514, "timestamp": "2025-12-26T22:28:06.056274+00:00", "meta": {"OBJECT_NAME": "FENGYUN 1C DEB", "OBJECT_ID": "1999-025GP", "EPOCH": "2025-12-26T12:53:48.501024", "MEAN_MOTION": 13.79467788, "ECCENTRICITY": 0.01739023, "INCLINATION": 98.5529, "RA_OF_ASC_NODE": 95.2787, "ARG_OF_PERICENTER": 116.2563, "MEAN_ANOMALY": 264.1975, "EPHEMERIS_TYPE": 0, "CLASSIFICATION_TYPE": "U", "NORAD_CAT_ID": 29893, "ELEMENT_SET_NO": 999, "REV_AT_EPOCH": 95330, "BSTAR": 0.00019469663, "MEAN_MOTION_DOT": 1.88e-06, "MEAN_MOTION_DDOT": 0}, "tle": {"line1": "1 29893U 99025GP  25360.53736691  .00000188  00000+0  19470-3 0  9992", "line2": "2 29893  98.5529  95.2787 0173902 116.2563 264.1975 13.79467788953309"}}, "geometry": {"type": "Point", "coordinates": [-87.80481270881747, -21.76137260071751]}}, {"type": "Feature", "properties": {"norad_id": 29894, "name": "FENGYUN 1C DEB", "group": "fengyun-1c-debris", "lat": -54.04449602597671, "lon": 68.63562474617997, "alt_km": 908.9686417286212, "timestamp": "2025-12-26T22:28:06.056284+00:00", "meta": {"OBJECT_NAME": "FENGYUN 1C DEB", "OBJECT_ID": "1999-025GQ", "EPOCH": "2025-12-26T14:46:43.328928", "MEAN_MOTION": 13.80989176, "ECCENTRICITY": 0.01679177, "INCLINATION": 99.4842, "RA_OF_ASC_NODE": 54.9901, "ARG_OF_PERICENTER": 8.3587, "MEAN_ANOMALY": 146.2027, "EPHEMERIS_TYPE": 0, "CLASSIFICATION_TYPE": "U", "NORAD_CAT_ID": 29894, "ELEMENT_SET_NO": 999, "REV_AT_EPOCH": 95268, "BSTAR": 0.0005290429, "MEAN_MOTION_DOT": 5.76e-06, "MEAN_MOTION_DDOT": 0}, "tle": {"line1": "1 29894U 99025GQ  25360.61577927  .00000576  00000+0  52904-3 0  9997", "line2": "2 29894  99.4842  54.9901 0167917   8.3587 146.2027 13.80989176952684"}}, "geometry": {"type": "Point", "coordinates": [68.63562474617997, -54.04449602597671]}}, {"type": "Feature", "properties": {"norad_id": 29895, "name": "FENGYUN 1C DEB", "group": "fengyun-1c-debris", "lat": 4.582360453013035, "lon": 109.90028502325696, "alt_km": 753.6379290759232, "timestamp": "2025-12-26T22:28:06.056294+00:00", "meta": {"OBJECT_NAME": "FENGYUN 1C DEB", "OBJECT_ID": "1999-025GR", "EPOCH": "2025-12-26T05:43:11.345664", "MEAN_MOTION": 14.08368824, "ECCENTRICITY": 0.02998293, "INCLINATION": 99.8838, "RA_OF_ASC_NODE": 109.9359, "ARG_OF_PERICENTER": 306.7105, "MEAN_ANOMALY": 118.7931, "EPHEMERIS_TYPE": 0, "CLASSIFICATION_TYPE": "U", "NORAD_CAT_ID": 29895, "ELEMENT_SET_NO": 999, "REV_AT_EPOCH": 95714, "BSTAR": 0.0023139293, "MEAN_MOTION_DOT": 5.937e-05, "MEAN_MOTION_DDOT": 0}, "tle": {"line1": "1 29895U 99025GR  25360.23832576  .00005937  00000+0  23139-2 0  9993", "line2": "2 29895  99.8838 109.9359 0299829 306.7105 118.7931 14.08368824957147"}}, "geometry": {"type": "Point", "coordinates": [109.90028502325696, 4.582360453013035]}}, {"type": "Feature", "properties": {"norad_id": 29896, "name": "FENGYUN 1C DEB", "group": "fengyun-1c-debris", "lat": 35.71432088559457, "lon": -114.58534795159967, "alt_km": 857.4025244036575, "timestamp": "2025-12-26T22:28:06.056305+00:00", "meta": {"OBJECT_NAME": "FENGYUN 1C DEB", "OBJECT_ID": "1999-025GS", "EPOCH": "2025-12-26T05:17:49.007040", "MEAN_MOTION": 13.65385311, "ECCENTRICITY": 0.0240151, "INCLINATION": 99.4223, "RA_OF_ASC_NODE": 251.5756, "ARG_OF_PERICENTER": 67.2834, "MEAN_ANOMALY": 55.4048, "EPHEMERIS_TYPE": 0, "CLASSIFICATION_TYPE": "U", "NORAD_CAT_ID": 29896, "ELEMENT_SET_NO": 999, "REV_AT_EPOCH": 94226, "BSTAR": 0.00071290602, "MEAN_MOTION_DOT": 6.65e-06, "MEAN_MOTION_DDOT": 0}, "tle": {"line1": "1 29896U 99025GS  25360.22070610  .00000665  00000+0  71291-3 0  9992", "line2": "2 29896  99.4223 251.5756 0240151  67.2834  55.4048 13.65385311942264"}}, "geometry": {"type": "Point", "coordinates": [-114.58534795159967, 35.71432088559457]}}, {"type": "Feature", "properties": {"norad_id": 29897, "name": "FENGYUN 1C DEB", "group": "fengyun-1c-debris", "lat": -77.45326919203316, "lon": 0.46910009780212286, "alt_km": 1258.5821475234961, "timestamp": "2025-12-26T22:28:06.056315+00:00", "meta": {"OBJECT_NAME": "FENGYUN 1C DEB", "OBJECT_ID": "1999-025GT", "EPOCH": "2025-12-26T14:16:29.626176", "MEAN_MOTION": 13.57238162, "ECCENTRICITY": 0.02972705, "INCLINATION": 98.6289, "RA_OF_ASC_NODE": 223.1915, "ARG_OF_PERICENTER": 102.5104, "MEAN_ANOMALY": 289.915, "EPHEMERIS_TYPE": 0, "CLASSIFICATION_TYPE": "U", "NORAD_CAT_ID": 29897, "ELEMENT_SET_NO": 999, "REV_AT_EPOCH": 93128, "BSTAR": 0.002283752, "MEAN_MOTION_DOT": 2.137e-05, "MEAN_MOTION_DDOT": 0}, "tle": {"line1": "1 29897U 99025GT  25360.59478734  .00002137  00000+0  22838-2 0  9990", "line2": "2 29897  98.6289 223.1915 0297270 102.5104 289.9150 13.57238162931287"}}, "geometry": {"type": "Point", "coordinates": [0.46910009780212286, -77.45326919203316]}}, {"type": "Feature", "properties": {"norad_id": 29898, "name": "FENGYUN 1C DEB", "group": "fengyun-1c-debris", "lat": -76.71464839067916, "lon": 133.5086464857233, "alt_km": 1093.621612492765, "timestamp": "2025-12-26T22:28:06.056326+00:00", "meta": {"OBJECT_NAME": "FENGYUN 1C DEB", "OBJECT_ID": "1999-025GU", "EPOCH": "2025-12-26T11:21:23.927040", "MEAN_MOTION": 13.70378359, "ECCENTRICITY": 0.04271648, "INCLINATION": 98.2241, "RA_OF_ASC_NODE": 350.8804, "ARG_OF_PERICENTER": 152.1908, "MEAN_ANOMALY": 339.7949, "EPHEMERIS_TYPE": 0, "CLASSIFICATION_TYPE": "U", "NORAD_CAT_ID": 29898, "ELEMENT_SET_NO": 999, "REV_AT_EPOCH": 93349, "BSTAR": 0.0014300941, "MEAN_MOTION_DOT": 2.382e-05, "MEAN_MOTION_DDOT": 0}, "tle": {"line1": "1 29898U 99025GU  25360.47319360  .00002382  00000+0  14301-2 0  9995", "line2": "2 29898  98.2241 350.8804 0427164 152.1908 339.7949 13.70378359933490"}}, "geometry": {"type": "Point", "coordinates": [133.5086464857233, -76.71464839067916]}}, {"type": "Feature", "properties": {"norad_id": 29899, "name": "FENGYUN 1C DEB", "group": "fengyun-1c-debris", "lat": 63.46275135759393, "lon": 136.59780738916047, "alt_km": 864.7030807379306, "timestamp": "2025-12-26T22:28:06.056337+00:00", "meta": {"OBJECT_NAME": "FENGYUN 1C DEB", "OBJECT_ID": "1999-025GV", "EPOCH": "2025-12-26T09:35:57.223104", "MEAN_MOTION": 13.37496685, "ECCENTRICITY": 0.03533094, "INCLINATION": 98.6623, "RA_OF_ASC_NODE": 153.9132, "ARG_OF_PERICENTER": 44.6961, "MEAN_ANOMALY": 318.2076, "EPHEMERIS_TYPE": 0, "CLASSIFICATION_TYPE": "U", "NORAD_CAT_ID": 29899, "ELEMENT_SET_NO": 999, "REV_AT_EPOCH": 92267, "BSTAR": 0.00023213966, "MEAN_MOTION_DOT": 1.41e-06, "MEAN_MOTION_DDOT": 0}, "tle": {"line1": "1 29899U 99025GV  25360.39996786  .00000141  00000+0  23214-3 0  9995", "line2": "2 29899  98.6623 153.9132 0353309  44.6961 318.2076 13.37496685922675"}}, "geometry": {"type": "Point", "coordinates": [136.59780738916047, 63.46275135759393]}}, {"type": "Feature", "properties": {"norad_id": 29901, "name": "FENGYUN 1C DEB", "group": "fengyun-1c-debris", "lat": 38.53181304886157, "lon": 162.6779500153251, "alt_km": 1373.4728435316783, "timestamp": "2025-12-26T22:28:06.056347+00:00", "meta": {"OBJECT_NAME": "FENGYUN 1C DEB", "OBJECT_ID": "1999-025GX", "EPOCH": "2025-12-26T10:01:54.023232", "MEAN_MOTION": 13.33262014, "ECCENTRICITY": 0.03792755, "INCLINATION": 98.745, "RA_OF_ASC_NODE": 169.2751, "ARG_OF_PERICENTER": 251.1925, "MEAN_ANOMALY": 179.7703, "EPHEMERIS_TYPE": 0, "CLASSIFICATION_TYPE": "U", "NORAD_CAT_ID": 29901, "ELEMENT_SET_NO": 999, "REV_AT_EPOCH": 92101, "BSTAR": 0.00046026307, "MEAN_MOTION_DOT": 3.01e-06, "MEAN_MOTION_DDOT": 0}, "tle": {"line1": "1 29901U 99025GX  25360.41798638  .00000301  00000+0  46026-3 0  9992", "line2": "2 29901  98.7450 169.2751 0379275 251.1925 179.7703 13.33262014921017"}}, "geometry": {"type": "Point", "coordinates": [162.6779500153251, 38.53181304886157]}}, {"type": "Feature", "properties": {"norad_id": 29904, "name": "FENGYUN 1C DEB", "group": "fengyun-1c-debris", "lat": 13.814171097324499, "lon": -138.04225907303177, "alt_km": 793.3748823191363, "timestamp": "2025-12-26T22:28:06.056358+00:00", "meta": {"OBJECT_NAME": "FENGYUN 1C DEB", "OBJECT_ID": "1999-025HA", "EPOCH": "2025-12-26T13:22:10.869600", "MEAN_MOTION": 14.44530236, "ECCENTRICITY": 0.02074052, "INCLINATION": 99.0402, "RA_OF_ASC_NODE": 39.311, "ARG_OF_PERICENTER": 277.4421, "MEAN_ANOMALY": 80.3246, "EPHEMERIS_TYPE": 0, "CLASSIFICATION_TYPE": "U", "NORAD_CAT_ID": 29904, "ELEMENT_SET_NO": 999, "REV_AT_EPOCH": 99263, "BSTAR": 0.00041872001, "MEAN_MOTION_DOT": 1.82e-05, "MEAN_MOTION_DDOT": 0}, "tle": {"line1": "1 29904U 99025HA  25360.55707025  .00001820  00000+0  41872-3 0  9991", "line2": "2 29904  99.0402  39.3110 0207405 277.4421  80.3246 14.44530236992636"}}, "geometry": {"type": "Point", "coordinates": [-138.04225907303177, 13.814171097324499]}}]}